H1 CPF 01  gfz 2022 09 05 00  7481 tandemx   
H2 1003001  6202 36605    2022 09 05 00 59 42 2022 09 10 00 00 42   120 1 1  0 0 0
H9
10 0 59828  16542.000000  0   -5597113.092  -1690256.580   3633463.832
10 0 59828  16662.000000  0   -5144343.260  -1359786.438   4365216.134
10 0 59828  16782.000000  0   -4595737.207  -1014310.058   5020122.456
10 0 59828  16902.000000  0   -3960716.180   -661467.425   5586685.000
10 0 59828  17022.000000  0   -3250340.692   -308844.396   6054971.226
10 0 59828  17142.000000  0   -2477109.349     36188.479   6416784.088
10 0 59828  17262.000000  0   -1654731.679    366627.394   6665799.184
10 0 59828  17382.000000  0    -797880.910    675974.524   6797668.901
10 0 59828  17502.000000  0      78069.156    958364.240   6810093.221
10 0 59828  17622.000000  0     957319.445   1208673.304   6702856.941
10 0 59828  17742.000000  0    1823929.615   1422613.976   6477833.303
10 0 59828  17862.000000  0    2662106.164   1596807.720   6138953.000
10 0 59828  17982.000000  0    3456490.571   1728838.622   5692140.508
10 0 59828  18102.000000  0    4192443.765   1817285.806   5145215.781
10 0 59828  18222.000000  0    4856319.166   1861734.637   4507763.460
10 0 59828  18342.000000  0    5435723.413   1862767.215   3790972.254
10 0 59828  18462.000000  0    5919758.465   1821930.217   3007439.823
10 0 59828  18582.000000  0    6299233.805   1741681.648   2170951.171
10 0 59828  18702.000000  0    6566851.151   1625317.552   1296234.628
10 0 59828  18822.000000  0    6717351.597   1476879.977    398695.847
10 0 59828  18942.000000  0    6747622.923   1301049.252   -505860.785
10 0 59828  19062.000000  0    6656763.961   1103022.662  -1401520.286
10 0 59828  19182.000000  0    6446103.201    888381.584  -2272544.840
10 0 59828  19302.000000  0    6119174.160    662951.766  -3103657.070
10 0 59828  19422.000000  0    5681646.214    432661.258  -3880312.547
10 0 59828  19542.000000  0    5141214.029    203398.645  -4588955.730
10 0 59828  19662.000000  0    4507448.346    -19125.110  -5217252.929
10 0 59828  19782.000000  0    3791615.020   -229507.088  -5754299.097
10 0 59828  19902.000000  0    3006466.319   -422772.808  -6190798.172
10 0 59828  20022.000000  0    2166006.843   -594484.670  -6519213.574
10 0 59828  20142.000000  0    1285241.513   -740835.876  -6733885.820
10 0 59828  20262.000000  0     379909.970   -858729.274  -6831121.017
10 0 59828  20382.000000  0    -533791.051   -945838.513  -6809247.238
10 0 59828  20502.000000  0   -1439490.305  -1000651.797  -6668639.598
10 0 59828  20622.000000  0   -2320928.807  -1022497.512  -6411715.050
10 0 59828  20742.000000  0   -3162245.162  -1011551.185  -6042894.038
10 0 59828  20862.000000  0   -3948254.855   -968824.205  -5568533.243
10 0 59828  20982.000000  0   -4664724.298   -896134.165  -4996827.929
10 0 59828  21102.000000  0   -5298631.620   -796056.863  -4337681.435
10 0 59828  21222.000000  0   -5838409.872   -671861.394  -3602544.986
10 0 59828  21342.000000  0   -6274168.920   -527428.557  -2804227.830
10 0 59828  21462.000000  0   -6597888.887   -367153.901  -1956679.386
10 0 59828  21582.000000  0   -6803581.104   -195838.637  -1074747.939
10 0 59828  21702.000000  0   -6887412.466    -18568.863   -173917.315
10 0 59828  21822.000000  0   -6847784.455    159412.964    729971.712
10 0 59828  21942.000000  0   -6685369.406    332840.630   1621006.572
10 0 59828  22062.000000  0   -6403101.890    496557.490   2483492.169
10 0 59828  22182.000000  0   -6006123.669    645647.444   3302236.665
10 0 59828  22302.000000  0   -5501683.462    775560.221   4062826.814
10 0 59828  22422.000000  0   -4898995.313    882227.403   4751885.981
10 0 59828  22542.000000  0   -4209059.908    962166.306   5357310.525
10 0 59828  22662.000000  0   -3444454.228   1012569.552   5868480.158
10 0 59828  22782.000000  0   -2619093.970   1031378.375   6276440.991
10 0 59828  22902.000000  0   -1747973.069   1017338.241   6574057.897
10 0 59828  23022.000000  0    -846885.304    970036.318   6756132.833
10 0 59828  23142.000000  0      67863.951    889919.135   6819488.826
10 0 59828  23262.000000  0     979752.205    778290.643   6763021.424
10 0 59828  23382.000000  0    1872336.994    637291.127   6587716.711
10 0 59828  23502.000000  0    2729551.174    469856.953   6296635.439
10 0 59828  23622.000000  0    3535992.588    279661.633   5894863.949
10 0 59828  23742.000000  0    4277203.579     71038.858   5389430.359
10 0 59828  23862.000000  0    4939934.508   -151111.041   4789187.509
10 0 59828  23982.000000  0    5512387.288   -381429.583   4104663.577
10 0 59828  24102.000000  0    5984434.694   -614221.357   3347882.093
10 0 59828  24222.000000  0    6347810.469   -843585.404   2532152.357
10 0 59828  24342.000000  0    6596263.833  -1063553.776   1671832.947
10 0 59828  24462.000000  0    6725673.788  -1268233.937    782074.817
10 0 59828  24582.000000  0    6734123.890  -1451952.240   -121451.381
10 0 59828  24702.000000  0    6621931.906  -1609394.326  -1022841.251
10 0 59828  24822.000000  0    6391632.795  -1735737.712  -1906245.327
10 0 59828  24942.000000  0    6047917.864  -1826774.393  -2756156.040
10 0 59828  25062.000000  0    5597530.538  -1879019.859  -3557685.154
10 0 59828  25182.000000  0    5049123.592  -1889806.011  -4296826.235
10 0 59828  25302.000000  0    4413082.183  -1857355.777  -4960697.880
10 0 59828  25422.000000  0    3701316.309  -1780838.774  -5537763.522
10 0 59828  25542.000000  0    2927028.073  -1660406.569  -6018023.004
10 0 59828  25662.000000  0    2104461.623  -1497206.655  -6393174.552
10 0 59828  25782.000000  0    1248639.361  -1293375.405  -6656748.239
10 0 59828  25902.000000  0     375088.029  -1052011.008  -6804206.556
10 0 59828  26022.000000  0    -500438.738   -777126.909  -6833013.929
10 0 59828  26142.000000  0   -1362237.979   -473586.102  -6742675.176
10 0 59828  26262.000000  0   -2194932.755   -147017.001  -6534743.279
10 0 59828  26382.000000  0   -2983740.162    196287.990  -6212794.447
10 0 59828  26502.000000  0   -3714728.027    549489.329  -5782373.568
10 0 59828  26622.000000  0   -4375060.040    905331.856  -5250909.333
10 0 59828  26742.000000  0   -4953223.364   1256288.170  -4627597.382
10 0 59828  26862.000000  0   -5439236.417   1594713.479  -3923253.690
10 0 59828  26982.000000  0   -5824830.313   1913008.016  -3150135.919
10 0 59828  27102.000000  0   -6103600.629   2203782.432  -2321737.350
10 0 59828  27222.000000  0   -6271125.907   2460023.773  -1452555.102
10 0 59828  27342.000000  0   -6325048.930   2675258.108   -557835.995
10 0 59828  27462.000000  0   -6265117.955   2843704.923    346695.538
10 0 59828  27582.000000  0   -6093184.782   2960419.212   1245121.651
10 0 59828  27702.000000  0   -5813159.871   3021418.055   2121619.956
10 0 59828  27822.000000  0   -5430925.579   3023787.358   2960751.175
10 0 59828  27942.000000  0   -4954210.902   2965766.662   3747738.938
10 0 59828  28062.000000  0   -4392429.240   2846808.902   4468736.352
10 0 59828  28182.000000  0   -3756484.825   2667614.599   5111071.651
10 0 59828  28302.000000  0   -3058553.988   2430140.562   5663470.399
10 0 59828  28422.000000  0   -2311844.613   2137582.778   6116251.468
10 0 59828  28542.000000  0   -1530339.392   1794333.173   6461491.863
10 0 59828  28662.000000  0    -728529.030   1405912.011   6693158.625
10 0 59828  28782.000000  0      78857.527    978877.217   6807207.088
10 0 59828  28902.000000  0     877123.070    520712.666   6801647.026
10 0 59828  29022.000000  0    1651868.638     39697.226   6676574.942
10 0 59828  29142.000000  0    2389252.032   -455244.003   6434172.972
10 0 59828  29262.000000  0    3076234.932   -954704.737   6078674.190
10 0 59828  29382.000000  0    3700815.668  -1448975.015   5616293.791
10 0 59828  29502.000000  0    4252242.932  -1928229.714   5055125.749
10 0 59828  29622.000000  0    4721205.414  -2382723.610   4405006.788
10 0 59828  29742.000000  0    5099996.485  -2802990.236   3677350.051
10 0 59828  29862.000000  0    5382649.552  -3180040.502   2884947.086
10 0 59828  29982.000000  0    5565038.412  -3505555.148   2041741.537
10 0 59828  30102.000000  0    5644940.962  -3772067.616   1162581.225
10 0 59828  30222.000000  0    5622065.675  -3973132.847    262950.680
10 0 59828  30342.000000  0    5498038.652  -4103476.066   -641309.112
10 0 59828  30462.000000  0    5276352.080  -4159119.418  -1534289.055
10 0 59828  30582.000000  0    4962274.619  -4137481.136  -2400300.580
10 0 59828  30702.000000  0    4562726.398  -4037446.341  -3224157.893
10 0 59828  30822.000000  0    4086122.974  -3859407.831  -3991448.199
10 0 59828  30942.000000  0    3542191.905  -3605275.871  -4688783.874
10 0 59828  31062.000000  0    2941767.925  -3278457.715  -5304032.426
10 0 59828  31182.000000  0    2296571.596  -2883807.784  -5826519.607
10 0 59828  31302.000000  0    1618978.050  -2427551.801  -6247203.765
10 0 59828  31422.000000  0     921779.264  -1917185.494  -6558822.991
10 0 59828  31542.000000  0     217943.164  -1361347.935  -6756010.112
10 0 59828  31662.000000  0    -479624.102   -769674.789  -6835374.598
10 0 59828  31782.000000  0   -1158309.029   -152633.634  -6795553.564
10 0 59828  31902.000000  0   -1806013.491    478656.921  -6637232.354
10 0 59828  32022.000000  0   -2411365.350   1112622.330  -6363133.440
10 0 59828  32142.000000  0   -2963913.667   1737438.869  -5977974.812
10 0 59828  32262.000000  0   -3454307.276   2341249.037  -5488398.124
10 0 59828  32382.000000  0   -3874455.142   2912383.945  -4902866.323
10 0 59828  32502.000000  0   -4217665.013   3439588.370  -4231528.277
10 0 59828  32622.000000  0   -4478755.464   3912243.561  -3486052.380
10 0 59828  32742.000000  0   -4654139.864   4320584.146  -2679432.737
10 0 59828  32862.000000  0   -4741881.325   4655903.775  -1825767.868
10 0 59828  32982.000000  0   -4741715.496   4910744.442   -940016.344
99
